[{"OBJECT_NAME":"STARLINK-3154","OBJECT_ID":"2021-104K","EPOCH":"2026-03-09T17:38:14.440704","MEAN_MOTION":15.08837008,"ECCENTRICITY":0.00013653,"INCLINATION":53.2175,"RA_OF_ASC_NODE":218.5721,"ARG_OF_PERICENTER":84.3986,"MEAN_ANOMALY":275.7162,"EPHEMERIS_TYPE":0,"CLASSIFICATION_TYPE":"U","NORAD_CAT_ID":49417,"ELEMENT_SET_NO":999,"REV_AT_EPOCH":23877,"BSTAR":1.4843761e-5,"MEAN_MOTION_DOT":-5.2e-7,"MEAN_MOTION_DDOT":0},{"OBJECT_NAME":"CZ-4C R\/B","OBJECT_ID":"2021-026B","EPOCH":"2026-03-09T16:37:41.696544","MEAN_MOTION":15.16445633,"ECCENTRICITY":0.00393855,"INCLINATION":97.7468,"RA_OF_ASC_NODE":117.371,"ARG_OF_PERICENTER":22.5612,"MEAN_ANOMALY":337.7341,"EPHEMERIS_TYPE":0,"CLASSIFICATION_TYPE":"U","NORAD_CAT_ID":48080,"ELEMENT_SET_NO":999,"REV_AT_EPOCH":27175,"BSTAR":0.00026802982,"MEAN_MOTION_DOT":5.244e-5,"MEAN_MOTION_DDOT":0}]
